From 79 observations 2018 Dec. 18-2019 Feb. 2; mean residual 0".64
# State vector (heliocentric equatorial J2000):
#   -0.209684300304  +1.608869977930  +2.145054422934 AU
#   -0.909636907885  +2.457291231344 -14.336528981904 mAU/day
# MOIDs: Me  1.2607 Ve  0.9542 Ea  0.7352 Ma  0.2467
# MOIDs: Ju  0.2696 Sa  2.3577 Ur  8.7847 Ne 16.2732
Orbital elements:  P10Lwea
   Perihelion 2019 Jul 26.515677 +/- 0.0083 TT = 12:22:34 (JD 2458691.015677)
Epoch 2019 Feb  2.0 TT = JDT 2458516.5   Earth MOID: 0.7354   Ju: 0.2719
M 359.29162 +/- 0.0037              (J2000 ecliptic)          Find_Orb
n   0.00405909 +/- 2.11e-5          Peri.  237.80124 +/- 0.007
a  38.9209611 +/- 0.135             Node   278.36905 +/- 0.0026
e   0.9633529 +/- 0.000124          Incl.   84.33976 +/- 0.0034
P 242.81                   H 15.5   G  0.15   U  5.5  
q 1.42634022 +/- 0.000145    Q 76.4155821 +/- 0.269
From 79 observations 2018 Dec. 18-2019 Feb. 2; mean residual 0".61
# State vector (heliocentric equatorial J2000):
#   -0.209647147605  +1.608945425207  +2.145206447578 AU
#   -0.908518117021  +2.458122568693 -14.337422973244 mAU/day
# MOIDs: Me  1.2609 Ve  0.9544 Ea  0.7354 Ma  0.2469
# MOIDs: Ju  0.2719 Sa  2.3531 Ur  8.7757 Ne 16.2583
Orbital elements:  P10Lwea
   Perihelion 2019 Jul 26.516144 +/- 0.00779 TT = 12:23:14 (JD 2458691.016144)
Epoch 2019 Feb  2.0 TT = JDT 2458516.5   Earth MOID: 0.7354   Ju: 0.2720
M 359.29181 +/- 0.0034              (J2000 ecliptic)          Find_Orb
n   0.00405799 +/- 1.98e-5          Peri.  237.80136 +/- 0.007
a  38.9279768 +/- 0.127             Node   278.36826 +/- 0.0024
e   0.9633595 +/- 0.000117          Incl.   84.34090 +/- 0.0032
P 242.88                   H 15.5   G  0.15   U  5.5  
q 1.42634001 +/- 0.000136    Q 76.4296137 +/- 0.253
From 79 observations 2018 Dec. 18-2019 Feb. 2; mean residual 0".53
# State vector (heliocentric equatorial J2000):
#   -0.209642383176  +1.608951565930  +2.145216875605 AU
#   -0.908277355282  +2.458121009592 -14.337453132502 mAU/day
# MOIDs: Me  1.2609 Ve  0.9544 Ea  0.7354 Ma  0.2469
# MOIDs: Ju  0.2720 Sa  2.3530 Ur  8.7756 Ne 16.2580
Orbital elements:  P10Lwea
   Perihelion 2019 Jul 26.516321 +/- 0.0084 TT = 12:23:30 (JD 2458691.016321)
Epoch 2019 Feb  2.0 TT = JDT 2458516.5   Earth MOID: 0.7354   Ju: 0.2717
M 359.29074 +/- 0.0037              (J2000 ecliptic)          Find_Orb
n   0.00406413 +/- 2.14e-5          Peri.  237.80246 +/- 0.007
a  38.8887790 +/- 0.137             Node   278.36974 +/- 0.0026
e   0.9633230 +/- 0.000126          Incl.   84.33886 +/- 0.0035
P 242.51                   H 15.6   G  0.15   U  5.5  
q 1.42632058 +/- 0.000147    Q 76.3512375 +/- 0.272
From 79 observations 2018 Dec. 18-2019 Feb. 2; mean residual 0".64
# State vector (heliocentric equatorial J2000):
#   -0.209653447600  +1.608934831267  +2.145180380447 AU
#   -0.908695149353  +2.458101201596 -14.337271990393 mAU/day
# MOIDs: Me  1.2609 Ve  0.9544 Ea  0.7354 Ma  0.2469
# MOIDs: Ju  0.2717 Sa  2.3536 Ur  8.7768 Ne 16.2602
Orbital elements:  P10Lwea
   Perihelion 2019 Jul 26.516829 +/- 0.00779 TT = 12:24:14 (JD 2458691.016829)
Epoch 2019 Feb  2.0 TT = JDT 2458516.5   Earth MOID: 0.7354   Ju: 0.2724
M 359.29240 +/- 0.0034              (J2000 ecliptic)          Find_Orb
n   0.00405462 +/- 1.98e-5          Peri.  237.79859 +/- 0.007
a  38.9495439 +/- 0.127             Node   278.36795 +/- 0.0024
e   0.9633781 +/- 0.000116          Incl.   84.34117 +/- 0.0032
P 243.08                   H 15.5   G  0.15   U  5.5  
q 1.42640498 +/- 0.000136    Q 76.4726829 +/- 0.253
From 79 observations 2018 Dec. 18-2019 Feb. 2; mean residual 0".55
# State vector (heliocentric equatorial J2000):
#   -0.209637632674  +1.608965732330  +2.145245664885 AU
#   -0.908268711724  +2.458360388540 -14.337470802347 mAU/day
# MOIDs: Me  1.2609 Ve  0.9544 Ea  0.7354 Ma  0.2469
# MOIDs: Ju  0.2724 Sa  2.3523 Ur  8.7742 Ne 16.2559
Orbital elements:  P10Lwea
   Perihelion 2019 Jul 26.522825 +/- 0.00792 TT = 12:32:52 (JD 2458691.022825)
Epoch 2019 Feb  2.0 TT = JDT 2458516.5   Earth MOID: 0.7354   Ju: 0.2716
M 359.28987 +/- 0.0035              (J2000 ecliptic)          Find_Orb
n   0.00406897 +/- 2.02e-5          Peri.  237.80289 +/- 0.007
a  38.8578957 +/- 0.129             Node   278.36878 +/- 0.0024
e   0.9632932 +/- 0.000119          Incl.   84.34011 +/- 0.0033
P 242.22                   H 15.5   G  0.15   U  5.5  
q 1.42634554 +/- 0.000139    Q 76.2894458 +/- 0.256
From 79 observations 2018 Dec. 18-2019 Feb. 2; mean residual 0".58
# State vector (heliocentric equatorial J2000):
#   -0.209644736058  +1.608948492428  +2.145214234575 AU
#   -0.908458785712  +2.458292963737 -14.336944774848 mAU/day
# MOIDs: Me  1.2609 Ve  0.9544 Ea  0.7354 Ma  0.2469
# MOIDs: Ju  0.2716 Sa  2.3539 Ur  8.7776 Ne 16.2616
Orbital elements:  P10Lwea
   Perihelion 2019 Jul 26.522119 +/- 0.00825 TT = 12:31:51 (JD 2458691.022119)
Epoch 2019 Feb  2.0 TT = JDT 2458516.5   Earth MOID: 0.7354   Ju: 0.2712
M 359.28927 +/- 0.0037              (J2000 ecliptic)          Find_Orb
n   0.00407239 +/- 2.1e-5           Peri.  237.80547 +/- 0.007
a  38.8361475 +/- 0.134             Node   278.36962 +/- 0.0026
e   0.9632743 +/- 0.000123          Incl.   84.33899 +/- 0.0034
P 242.02                   H 15.6   G  0.15   U  5.5  
q 1.42628449 +/- 0.000144    Q 76.2460106 +/- 0.266
From 79 observations 2018 Dec. 18-2019 Feb. 2; mean residual 0".60
# State vector (heliocentric equatorial J2000):
#   -0.209651747088  +1.608934785340  +2.145184468988 AU
#   -0.908645822280  +2.458038356399 -14.336917413699 mAU/day
# MOIDs: Me  1.2608 Ve  0.9543 Ea  0.7354 Ma  0.2469
# MOIDs: Ju  0.2712 Sa  2.3546 Ur  8.7789 Ne 16.2637
Orbital elements:  P10Lwea
   Perihelion 2019 Jul 26.516747 +/- 0.0082 TT = 12:24:07 (JD 2458691.016747)
Epoch 2019 Feb  2.0 TT = JDT 2458516.5   Earth MOID: 0.7354   Ju: 0.2723
M 359.29207 +/- 0.0036              (J2000 ecliptic)          Find_Orb
n   0.00405649 +/- 2.09e-5          Peri.  237.79872 +/- 0.007
a  38.9375436 +/- 0.134             Node   278.36836 +/- 0.0025
e   0.9633668 +/- 0.000123          Incl.   84.34061 +/- 0.0034
P 242.97                   H 15.6   G  0.15   U  5.5  
q 1.42640306 +/- 0.000143    Q 76.4486841 +/- 0.266
From 79 observations 2018 Dec. 18-2019 Feb. 2; mean residual 0".60
# State vector (heliocentric equatorial J2000):
#   -0.209640730570  +1.608959457928  +2.145233946154 AU
#   -0.908388228904  +2.458384746535 -14.337414080095 mAU/day
# MOIDs: Me  1.2609 Ve  0.9544 Ea  0.7354 Ma  0.2469
# MOIDs: Ju  0.2723 Sa  2.3524 Ur  8.7745 Ne 16.2565
Orbital elements:  P10Lwea
   Perihelion 2019 Jul 26.516217 +/- 0.00751 TT = 12:23:21 (JD 2458691.016217)
Epoch 2019 Feb  2.0 TT = JDT 2458516.5   Earth MOID: 0.7354   Ju: 0.2716
M 359.29039 +/- 0.0033              (J2000 ecliptic)          Find_Orb
n   0.00406611 +/- 1.91e-5          Peri.  237.80307 +/- 0.006
a  38.8761195 +/- 0.122             Node   278.37003 +/- 0.0023
e   0.9633114 +/- 0.000112          Incl.   84.33849 +/- 0.0031
P 242.40                   H 15.6   G  0.15   U  5.4  
q 1.42630745 +/- 0.000131    Q 76.3259317 +/- 0.243
From 79 observations 2018 Dec. 18-2019 Feb. 2; mean residual 0".53
# State vector (heliocentric equatorial J2000):
#   -0.209656156499  +1.608928066926  +2.145167311368 AU
#   -0.908764782540  +2.458077756356 -14.337225862997 mAU/day
# MOIDs: Me  1.2609 Ve  0.9543 Ea  0.7354 Ma  0.2469
# MOIDs: Ju  0.2716 Sa  2.3539 Ur  8.7773 Ne 16.2610
Orbital elements:  P10Lwea
   Perihelion 2019 Jul 26.512887 +/- 0.00791 TT = 12:18:33 (JD 2458691.012887)
Epoch 2019 Feb  2.0 TT = JDT 2458516.5   Earth MOID: 0.7353   Ju: 0.2709
M 359.28976 +/- 0.0035              (J2000 ecliptic)          Find_Orb
n   0.00406982 +/- 2.02e-5          Peri.  237.80732 +/- 0.007
a  38.8525230 +/- 0.128             Node   278.37200 +/- 0.0024
e   0.9632921 +/- 0.000118          Incl.   84.33578 +/- 0.0033
P 242.17                   H 15.6   G  0.15   U  5.5  
q 1.42619193 +/- 0.000138    Q 76.2788541 +/- 0.256
From 79 observations 2018 Dec. 18-2019 Feb. 2; mean residual 0".58
# State vector (heliocentric equatorial J2000):
#   -0.209669933923  +1.608898749981  +2.145110843247 AU
#   -0.909244151321  +2.457554413680 -14.337299428660 mAU/day
# MOIDs: Me  1.2608 Ve  0.9543 Ea  0.7353 Ma  0.2468
# MOIDs: Ju  0.2709 Sa  2.3550 Ur  8.7792 Ne 16.2639
Orbital elements:  P10Lwea
   Perihelion 2019 Jul 26.514518 +/- 0.00823 TT = 12:20:54 (JD 2458691.014518)
Epoch 2019 Feb  2.0 TT = JDT 2458516.5   Earth MOID: 0.7354   Ju: 0.2722
M 359.29240 +/- 0.0036              (J2000 ecliptic)          Find_Orb
n   0.00405465 +/- 2.1e-5           Peri.  237.80002 +/- 0.007
a  38.9493571 +/- 0.134             Node   278.36826 +/- 0.0025
e   0.9633791 +/- 0.000123          Incl.   84.34088 +/- 0.0034
P 243.08                   H 15.6   G  0.15   U  5.5  
q 1.42636003 +/- 0.000144    Q 76.4723542 +/- 0.267
From 79 observations 2018 Dec. 18-2019 Feb. 2; mean residual 0".60
# State vector (heliocentric equatorial J2000):
#   -0.209642328386  +1.608953602097  +2.145223003747 AU
#   -0.908292645975  +2.458169602503 -14.337571942694 mAU/day
# MOIDs: Me  1.2609 Ve  0.9544 Ea  0.7354 Ma  0.2469
# MOIDs: Ju  0.2722 Sa  2.3526 Ur  8.7747 Ne 16.2565
Orbital elements:  P10Lwea
   Perihelion 2019 Jul 26.508374 +/- 0.00788 TT = 12:12:03 (JD 2458691.008374)
Epoch 2019 Feb  2.0 TT = JDT 2458516.5   Earth MOID: 0.7354   Ju: 0.2726
M 359.29410 +/- 0.0035              (J2000 ecliptic)          Find_Orb
n   0.00404504 +/- 2e-5             Peri.  237.79746 +/- 0.007
a  39.0110103 +/- 0.129             Node   278.36832 +/- 0.0024
e   0.9634364 +/- 0.000118          Incl.   84.34073 +/- 0.0033
P 243.66                   H 15.7   G  0.15   U  5.5  
q 1.42638124 +/- 0.000138    Q 76.5956395 +/- 0.257
From 79 observations 2018 Dec. 18-2019 Feb. 2; mean residual 0".58
# State vector (heliocentric equatorial J2000):
#   -0.209641492067  +1.608954856165  +2.145224019472 AU
#   -0.908335450261  +2.458131753958 -14.337990170681 mAU/day
